{
    "links": {
        "self": "http://www.neowsapp.com/rest/v1/neo/3602981?api_key=iIulBulltgU6a56xZRHN4H3l9WmuAYTsLGpBGhQ2"
    },
    "id": "3602981",
    "neo_reference_id": "3602981",
    "name": "(2012 HC25)",
    "designation": "2012 HC25",
    "nasa_jpl_url": "http://ssd.jpl.nasa.gov/sbdb.cgi?sstr=3602981",
    "absolute_magnitude_h": 25.8,
    "estimated_diameter": {
        "kilometers": {
            "estimated_diameter_min": 0.0183888672,
            "estimated_diameter_max": 0.0411187571
        },
        "meters": {
            "estimated_diameter_min": 18.388867207,
            "estimated_diameter_max": 41.1187571041
        },
        "miles": {
            "estimated_diameter_min": 0.0114263088,
            "estimated_diameter_max": 0.0255500032
        },
        "feet": {
            "estimated_diameter_min": 60.3309310875,
            "estimated_diameter_max": 134.9040630575
        }
    },
    "is_potentially_hazardous_asteroid": false,
    "close_approach_data": [
        {
            "close_approach_date": "2012-04-03",
            "close_approach_date_full": "2012-Apr-03 09:03",
            "epoch_date_close_approach": 1333443780000,
            "relative_velocity": {
                "kilometers_per_second": "4.8067898439",
                "kilometers_per_hour": "17304.4434380324",
                "miles_per_hour": "10752.3082018152"
            },
            "miss_distance": {
                "astronomical": "0.0187012862",
                "lunar": "7.2748003318",
                "kilometers": "2797672.581780394",
                "miles": "1738393.1319576772"
            },
            "orbiting_body": "Earth"
        }
    ],
    "orbital_data": {
        "orbit_id": "4",
        "orbit_determination_date": "2017-04-06 08:49:56",
        "first_observation_date": "2012-04-25",
        "last_observation_date": "2012-04-28",
        "data_arc_in_days": 3,
        "observations_used": 11,
        "orbit_uncertainty": "9",
        "minimum_orbit_intersection": ".0183687",
        "jupiter_tisserand_invariant": "5.242",
        "epoch_osculation": "2456044.5",
        "eccentricity": ".1881041463151676",
        "semi_major_axis": "1.209753941328812",
        "inclination": "6.402158703911614",
        "ascending_node_longitude": "198.9888783270386",
        "orbital_period": "486.0086460769855",
        "perihelion_distance": ".9821942089437463",
        "perihelion_argument": "317.2689541757574",
        "aphelion_distance": "1.437313673713877",
        "perihelion_time": "2455986.250903189611",
        "mean_anomaly": "43.14671152664714",
        "mean_motion": ".7407275629886114",
        "equinox": "J2000",
        "orbit_class": {
            "orbit_class_type": "APO",
            "orbit_class_description": "Near-Earth asteroid orbits which cross the Earth’s orbit similar to that of 1862 Apollo",
            "orbit_class_range": "a (semi-major axis) > 1.0 AU; q (perihelion) < 1.017 AU"
        }
    },
    "is_sentry_object": false
}